NORAD_CAT_ID,OBJECT_NAME,OBJECT_TYPE,EPOCH,MEAN_MOTION,ECCENTRICITY,INCLINATION,RA_OF_ASC_NODE,ARG_OF_PERICENTER,MEAN_ANOMALY,BSTAR,MEAN_MOTION_DOT,MEAN_MOTION_DDOT,TLE_LINE0,TLE_LINE1,TLE_LINE2,SEMIMAJOR_AXIS,PERIOD,APOGEE,PERIGEE,DECAYED
55764.0,STARLINK-5499,PAYLOAD,2023-12-08 13:35:20,14.98330971,0.0003093,69.9988,137.4573,269.5066,90.5738,8.8781e-06,1.3e-07,0.0,0 STARLINK-5499,1 55764U 23028Z   23342.56620799  .00000013  00000-0  88781-5 0  9991,2 55764  69.9988 137.4573 0003093 269.5066  90.5738 14.98330971 43382,6950.19,96.107,574.205,569.905,0.0
55764.0,STARLINK-5499,PAYLOAD,2023-12-09 12:01:13,14.98329419,0.0003025,69.9988,135.1002,266.6629,93.4184,6.386e-06,-1.7e-07,0.0,0 STARLINK-5499,1 55764U 23028Z   23343.50084835 -.00000017  00000-0  63860-5 0  9997,2 55764  69.9988 135.1002 0003025 266.6629  93.4184 14.98329419 43520,6950.195,96.107,574.162,569.957,0.0
55764.0,STARLINK-5499,PAYLOAD,2023-12-09 13:37:21,14.9832901,0.0002903,69.9987,134.9313,262.5579,97.525,-2.1634e-07,-9.6e-07,0.0,0 STARLINK-5499,1 55764U 23028Z   23343.56760851 -.00000096  00000-0 -21634-6 0  9994,2 55764  69.9987 134.9313 0002903 262.5579  97.5250 14.98329010 43531,6950.196,96.107,574.079,570.043,0.0
55764.0,STARLINK-5499,PAYLOAD,2023-12-10 12:03:14,14.98329096,0.0002715,69.9993,132.5752,255.5278,104.5579,-1.3825e-06,-1.09e-06,0.0,0 STARLINK-5499,1 55764U 23028Z   23344.50224841 -.00000109  00000-0 -13825-5 0  9990,2 55764  69.9993 132.5752 0002715 255.5278 104.5579 14.98329096 43670,6950.196,96.107,573.948,570.174,0.0
55764.0,STARLINK-5499,PAYLOAD,2023-12-10 13:39:22,14.9832903,0.0002701,69.9994,132.4069,254.7322,105.3538,-1.0682e-06,-1.06e-06,0.0,0 STARLINK-5499,1 55764U 23028Z   23344.56900843 -.00000106  00000-0 -10682-5 0  9994,2 55764  69.9994 132.4069 0002701 254.7322 105.3538 14.98329030 43680,6950.196,96.107,573.938,570.184,0.0
55764.0,STARLINK-5499,PAYLOAD,2023-12-10 20:03:54,14.98329966,0.0003024,69.9996,131.7352,265.8248,94.2565,1.0537e-05,3.3e-07,0.0,0 STARLINK-5499,1 55764U 23028Z   23344.83604823  .00000033  00000-0  10537-4 0  9998,2 55764  69.9996 131.7352 0003024 265.8248  94.2565 14.98329966 43727,6950.193,96.107,574.16,569.956,0.0
55764.0,STARLINK-5499,PAYLOAD,2023-12-11 12:05:15,14.98330278,0.0003099,69.9995,130.0525,266.8205,93.26,3.4499e-05,3.19e-06,0.0,0 STARLINK-5499,1 55764U 23028Z   23345.50364687  .00000319  00000-0  34499-4 0  9994,2 55764  69.9995 130.0525 0003099 266.8205  93.2600 14.98330278 43824,6950.192,96.107,574.211,569.903,0.0
55764.0,STARLINK-5499,PAYLOAD,2023-12-11 13:41:23,14.98330448,0.0003083,69.9995,129.8841,266.5747,93.5059,3.5897e-05,3.35e-06,0.0,0 STARLINK-5499,1 55764U 23028Z   23345.57040673  .00000335  00000-0  35897-4 0  9998,2 55764  69.9995 129.8841 0003083 266.5747  93.5059 14.98330448 43833,6950.192,96.107,574.199,569.914,0.0
55764.0,STARLINK-5499,PAYLOAD,2023-12-11 20:05:55,14.98331359,0.000306,69.9995,129.2109,266.1822,93.8988,4.2498e-05,4.14e-06,0.0,0 STARLINK-5499,1 55764U 23028Z   23345.83744577  .00000414  00000-0  42498-4 0  9994,2 55764  69.9995 129.2109 0003060 266.1822  93.8988 14.98331359 43879,6950.189,96.107,574.18,569.927,0.0
55764.0,STARLINK-5499,PAYLOAD,2023-12-12 12:07:14,14.98343188,0.0003246,69.9992,127.5264,270.6009,89.4778,0.00011718,1.306e-05,0.0,0 STARLINK-5499,1 55764U 23028Z   23346.50503300  .00001306  00000-0  11718-3 0  9997,2 55764  69.9992 127.5264 0003246 270.6009  89.4778 14.98343188 43974,6950.152,96.106,574.273,569.761,0.0
55764.0,STARLINK-5499,PAYLOAD,2023-12-12 13:43:22,14.98343505,0.0003242,69.9992,127.3581,270.7771,89.3017,0.00011968,1.336e-05,0.0,0 STARLINK-5499,1 55764U 23028Z   23346.57179218  .00001336  00000-0  11968-3 0  9991,2 55764  69.9992 127.3581 0003242 270.7771  89.3017 14.98343505 43986,6950.151,96.106,574.269,569.763,0.0
55764.0,STARLINK-5499,PAYLOAD,2023-12-12 20:07:54,14.98348188,0.0003237,69.9994,126.686,269.7528,90.326,0.00017743,2.026e-05,0.0,0 STARLINK-5499,1 55764U 23028Z   23346.83882515  .00002026  00000-0  17743-3 0  9995,2 55764  69.9994 126.6860 0003237 269.7528  90.3260 14.98348188 44022,6950.137,96.106,574.251,569.752,0.0
55764.0,STARLINK-5499,PAYLOAD,2023-12-13 12:09:16,14.98329273,0.0003342,69.9995,125.0034,272.8012,87.2764,-6.893e-05,-9.15e-06,0.0,0 STARLINK-5499,1 55764U 23028Z   23347.50644131 -.00000915  00000-0 -68930-4 0  9992,2 55764  69.9995 125.0034 0003342 272.8012  87.2764 14.98329273 44128,6950.195,96.107,574.383,569.737,0.0
55764.0,STARLINK-5499,PAYLOAD,2023-12-13 13:45:24,14.98329686,0.0003322,69.9993,124.8348,272.2381,87.8397,-6.7462e-05,-8.98e-06,0.0,0 STARLINK-5499,1 55764U 23028Z   23347.57320083 -.00000898  00000-0 -67462-4 0  9995,2 55764  69.9993 124.8348 0003322 272.2381  87.8397 14.98329686 44139,6950.194,96.107,574.368,569.75,0.0
55764.0,STARLINK-5499,PAYLOAD,2023-12-13 18:33:48,14.98326175,0.000299,69.9996,124.3291,265.4479,94.6339,-9.2533e-05,-1.197e-05,0.0,0 STARLINK-5499,1 55764U 23028Z   23347.77348337 -.00001197  00000-0 -92533-4 0  9999,2 55764  69.9996 124.3291 0002990 265.4479  94.6339 14.98326175 44161,6950.205,96.107,574.148,569.992,0.0
55764.0,STARLINK-5499,PAYLOAD,2023-12-14 12:11:17,14.98330313,0.000306,69.9995,122.4774,265.2182,94.8628,-0.00020379,-2.524e-05,0.0,0 STARLINK-5499,1 55764U 23028Z   23348.50784392 -.00002524  00000-0 -20379-3 0  9999,2 55764  69.9995 122.4774 0003060 265.2182  94.8628 14.98330313 44277,6950.192,96.107,574.184,569.93,0.0
55764.0,STARLINK-5499,PAYLOAD,2023-12-14 13:47:25,14.98329324,0.0003264,69.9989,122.3079,270.148,89.9305,-0.00020456,-2.533e-05,0.0,0 STARLINK-5499,1 55764U 23028Z   23348.57460479 -.00002533  00000-0 -20456-3 0  9999,2 55764  69.9989 122.3079 0003264 270.1480  89.9305 14.98329324 44287,6950.195,96.107,574.329,569.791,0.0
55764.0,STARLINK-5499,PAYLOAD,2023-12-14 18:35:49,14.98332161,0.0003135,69.9994,121.8041,265.9415,94.1386,-0.00016822,-2.1e-05,0.0,0 STARLINK-5499,1 55764U 23028Z   23348.77488181 -.00002100  00000-0 -16822-3 0  9993,2 55764  69.9994 121.8041 0003135 265.9415  94.1386 14.98332161 44317,6950.186,96.107,574.23,569.872,0.0
55764.0,STARLINK-5499,PAYLOAD,2023-12-15 12:13:18,14.98321065,0.0002929,69.9999,119.9529,260.2707,99.8121,4.1698e-05,4.04e-06,0.0,0 STARLINK-5499,1 55764U 23028Z   23349.50924488  .00000404  00000-0  41698-4 0  9993,2 55764  69.9999 119.9529 0002929 260.2707  99.8121 14.98321065 44425,6950.221,96.108,574.121,570.05,0.0
55764.0,STARLINK-5499,PAYLOAD,2023-12-15 13:49:26,14.98320975,0.0002932,69.9999,119.7845,260.2736,99.8092,4.037e-05,3.89e-06,0.0,0 STARLINK-5499,1 55764U 23028Z   23349.57600541  .00000389  00000-0  40370-4 0  9999,2 55764  69.9999 119.7845 0002932 260.2736  99.8092 14.98320975 44437,6950.221,96.108,574.124,570.048,0.0
55764.0,STARLINK-5499,PAYLOAD,2023-12-15 18:37:51,14.98322771,0.0002909,70.0001,119.28,259.2852,100.798,5.939e-05,6.16e-06,0.0,0 STARLINK-5499,1 55764U 23028Z   23349.77628488  .00000616  00000-0  59390-4 0  9996,2 55764  70.0001 119.2800 0002909 259.2852 100.7980 14.98322771 44468,6950.215,96.107,574.102,570.058,0.0
55764.0,STARLINK-5499,PAYLOAD,2023-12-16 12:15:19,14.98324966,0.0002942,70.0001,117.429,259.3273,100.7555,5.9498e-05,6.17e-06,0.0,0 STARLINK-5499,1 55764U 23028Z   23350.51064669  .00000617  00000-0  59498-4 0  9995,2 55764  70.0001 117.4290 0002942 259.3273 100.7555 14.98324966 44574,6950.208,96.107,574.118,570.029,0.0
55764.0,STARLINK-5499,PAYLOAD,2023-12-16 13:51:27,14.98325337,0.0002922,70.0002,117.2608,258.6532,101.4299,6.4858e-05,6.81e-06,0.0,0 STARLINK-5499,1 55764U 23028Z   23350.57740658  .00000681  00000-0  64858-4 0  9997,2 55764  70.0002 117.2608 0002922 258.6532 101.4299 14.98325337 44581,6950.207,96.107,574.103,570.041,0.0
55764.0,STARLINK-5499,PAYLOAD,2023-12-16 18:39:52,14.98327102,0.0002901,70.0003,116.756,258.5379,101.5454,8.1854e-05,8.84e-06,0.0,0 STARLINK-5499,1 55764U 23028Z   23350.77768553  .00000884  00000-0  81854-4 0  9993,2 55764  70.0003 116.7560 0002901 258.5379 101.5454 14.98327102 44618,6950.202,96.107,574.083,570.051,0.0
55764.0,STARLINK-5499,PAYLOAD,2023-12-17 10:41:12,14.98328829,0.0002868,70.0005,115.073,258.3474,101.7363,4.1693e-05,4.05e-06,0.0,0 STARLINK-5499,1 55764U 23028Z   23351.44528657  .00000405  00000-0  41693-4 0  9993,2 55764  70.0005 115.0730 0002868 258.3474 101.7363 14.98328829 44716,6950.197,96.107,574.055,570.068,0.0
55764.0,STARLINK-5499,PAYLOAD,2023-12-17 18:41:52,14.9833203,0.0002807,70.0007,114.2317,257.2411,102.8434,7.7607e-05,8.33e-06,0.0,0 STARLINK-5499,1 55764U 23028Z   23351.77908352  .00000833  00000-0  77607-4 0  9992,2 55764  70.0007 114.2317 0002807 257.2411 102.8434 14.98332030 44767,6950.187,96.107,574.003,570.101,0.0
55764.0,STARLINK-5499,PAYLOAD,2023-12-18 13:55:29,14.98335471,0.0002835,70.0007,112.2123,257.6883,102.3959,5.3479e-05,5.45e-06,0.0,0 STARLINK-5499,1 55764U 23028Z   23352.58019968  .00000545  00000-0  53479-4 0  9999,2 55764  70.0007 112.2123 0002835 257.6883 102.3959 14.98335471 44880,6950.176,96.107,574.011,570.071,0.0
55764.0,STARLINK-5499,PAYLOAD,2023-12-18 17:07:45,14.98337772,0.0002806,70.0008,111.8758,255.4553,104.6295,7.9159e-05,8.52e-06,0.0,0 STARLINK-5499,1 55764U 23028Z   23352.71371680  .00000852  00000-0  79159-4 0  9990,2 55764  70.0008 111.8758 0002806 255.4553 104.6295 14.98337772 44905,6950.169,96.107,573.984,570.084,0.0
55764.0,STARLINK-5499,PAYLOAD,2023-12-19 10:45:14,14.98329895,0.0002607,70.0026,110.0283,239.1015,120.9888,-1.3718e-05,-2.57e-06,0.0,0 STARLINK-5499,1 55764U 23028Z   23353.44808338 -.00000257  00000-0 -13718-4 0  9996,2 55764  70.0026 110.0283 0002607 239.1015 120.9888 14.98329895 45019,6950.193,96.107,573.87,570.246,0.0
55764.0,STARLINK-5499,PAYLOAD,2023-12-19 13:57:30,14.98326808,0.0002846,70.0004,109.6867,262.9313,97.1522,-8.9926e-05,-1.166e-05,0.0,0 STARLINK-5499,1 55764U 23028Z   23353.58160798 -.00001166  00000-0 -89926-4 0  9996,2 55764  70.0004 109.6867 0002846 262.9313  97.1522 14.98326808 45030,6950.203,96.107,574.046,570.09,0.0
